IRIDIUM 172             
1 43927U 19002F   23082.16212047  .00000426  00000+0  14511-3 0  9991
2 43927  86.3952 127.6296 0002392  92.7657 267.3813 14.34220070219549
IRIDIUM 175             
1 43928U 19002G   23082.19409672  .00001571  00000+0  24531-3 0  9992
2 43928  86.1495 126.3463 0002317  98.4297 261.7182 14.72231615225332
IRIDIUM 171             
1 43929U 19002H   23081.86401981  .00000403  00000+0  13683-3 0  9990
2 43929  86.3963 127.9293 0002427  91.5763 268.5711 14.34217846219498
IRIDIUM 170             
1 43930U 19002J   23082.20675407  .00001550  00000+0  24201-3 0  9999
2 43930  86.6087 127.6722 0002361  96.4884 263.6602 14.72244059225354
IRIDIUM 167             
1 43931U 19002K   23082.48558925  .00000426  00000+0  14502-3 0  9999
2 43931  86.3953 127.5064 0002498  92.5277 267.6205 14.34220413219583
