[
  {
    "OBJECT_NAME": "IRIDIUM 172",
    "OBJECT_ID": "2019-002F",
    "EPOCH": "2023-03-23T03:53:27.208608",
    "MEAN_MOTION": 14.3422007,
    "ECCENTRICITY": 0.0002392,
    "INCLINATION": 86.3952,
    "RA_OF_ASC_NODE": 127.6296,
    "ARG_OF_PERICENTER": 92.7657,
    "MEAN_ANOMALY": 267.3813,
    "EPHEMERIS_TYPE": 0,
    "CLASSIFICATION_TYPE": "U",
    "NORAD_CAT_ID": 43927,
    "ELEMENT_SET_NO": 999,
    "REV_AT_EPOCH": 21954,
    "BSTAR": 0.00014511,
    "MEAN_MOTION_DOT": 4.26e-6,
    "MEAN_MOTION_DDOT": 0
  },
  {
    "OBJECT_NAME": "IRIDIUM 175",
    "OBJECT_ID": "2019-002G",
    "EPOCH": "2023-03-23T04:39:29.956608",
    "MEAN_MOTION": 14.72231615,
    "ECCENTRICITY": 0.0002317,
    "INCLINATION": 86.1495,
    "RA_OF_ASC_NODE": 126.3463,
    "ARG_OF_PERICENTER": 98.4297,
    "MEAN_ANOMALY": 261.7182,
    "EPHEMERIS_TYPE": 0,
    "CLASSIFICATION_TYPE": "U",
    "NORAD_CAT_ID": 43928,
    "ELEMENT_SET_NO": 999,
    "REV_AT_EPOCH": 22533,
    "BSTAR": 0.00024531,
    "MEAN_MOTION_DOT": 1.571e-5,
    "MEAN_MOTION_DDOT": 0
  },
  {
    "OBJECT_NAME": "IRIDIUM 171",
    "OBJECT_ID": "2019-002H",
    "EPOCH": "2023-03-22T20:44:11.311584",
    "MEAN_MOTION": 14.34217846,
    "ECCENTRICITY": 0.0002427,
    "INCLINATION": 86.3963,
    "RA_OF_ASC_NODE": 127.9293,
    "ARG_OF_PERICENTER": 91.5763,
    "MEAN_ANOMALY": 268.5711,
    "EPHEMERIS_TYPE": 0,
    "CLASSIFICATION_TYPE": "U",
    "NORAD_CAT_ID": 43929,
    "ELEMENT_SET_NO": 999,
    "REV_AT_EPOCH": 21949,
    "BSTAR": 0.00013683,
    "MEAN_MOTION_DOT": 4.03e-6,
    "MEAN_MOTION_DDOT": 0
  },
  {
    "OBJECT_NAME": "IRIDIUM 170",
    "OBJECT_ID": "2019-002J",
    "EPOCH": "2023-03-23T04:57:43.551648",
    "MEAN_MOTION": 14.72244059,
    "ECCENTRICITY": 0.0002361,
    "INCLINATION": 86.6087,
    "RA_OF_ASC_NODE": 127.6722,
    "ARG_OF_PERICENTER": 96.4884,
    "MEAN_ANOMALY": 263.6602,
    "EPHEMERIS_TYPE": 0,
    "CLASSIFICATION_TYPE": "U",
    "NORAD_CAT_ID": 43930,
    "ELEMENT_SET_NO": 999,
    "REV_AT_EPOCH": 22535,
    "BSTAR": 0.00024201,
    "MEAN_MOTION_DOT": 1.55e-5,
    "MEAN_MOTION_DDOT": 0
  },
  {
    "OBJECT_NAME": "IRIDIUM 167",
    "OBJECT_ID": "2019-002K",
    "EPOCH": "2023-03-23T11:39:14.911200",
    "MEAN_MOTION": 14.34220413,
    "ECCENTRICITY": 0.0002498,
    "INCLINATION": 86.3953,
    "RA_OF_ASC_NODE": 127.5064,
    "ARG_OF_PERICENTER": 92.5277,
    "MEAN_ANOMALY": 267.6205,
    "EPHEMERIS_TYPE": 0,
    "CLASSIFICATION_TYPE": "U",
    "NORAD_CAT_ID": 43931,
    "ELEMENT_SET_NO": 999,
    "REV_AT_EPOCH": 21958,
    "BSTAR": 0.00014502,
    "MEAN_MOTION_DOT": 4.26e-6,
    "MEAN_MOTION_DDOT": 0
  }
]